OBJECT_NAME,OBJECT_ID,EPOCH,MEAN_MOTION,ECCENTRICITY,INCLINATION,RA_OF_ASC_NODE,ARG_OF_PERICENTER,MEAN_ANOMALY,EPHEMERIS_TYPE,CLASSIFICATION_TYPE,NORAD_CAT_ID,ELEMENT_SET_NO,REV_AT_EPOCH,BSTAR,MEAN_MOTION_DOT,MEAN_MOTION_DDOT
GSAT0215 (GALILEO 19),2017-079A,2026-06-18T18:36:27.330912,1.70474593,.0003228,55.0730,221.4630,264.0800,95.9660,0,U,43055,999,5301,0,.28E-6,0
GSAT0216 (GALILEO 20),2017-079B,2026-06-17T21:26:22.395264,1.70474666,.00043172,55.0732,221.4873,276.2784,83.7610,0,U,43056,999,5301,0,.34E-6,0
GSAT0217 (GALILEO 21),2017-079C,2026-06-16T08:30:18.751680,1.70474228,.00049855,55.0717,221.5274,283.8791,76.1632,0,U,43057,999,5297,0,.47E-6,0
GSAT0218 (GALILEO 22),2017-079D,2026-06-19T12:10:33.425184,1.70474769,.0004305,55.0708,221.4378,273.7481,86.2815,0,U,43058,999,5305,0,.26E-6,0
BEIDOU-3 M7 (C27),2018-003A,2026-06-20T00:50:53.428704,1.86227890,.00048518,54.3254,302.2159,94.5867,265.4639,0,U,43107,999,5740,0,-.89E-6,0
BEIDOU-3 M8 (C28),2018-003B,2026-06-20T12:24:29.623392,1.86231030,.0002615,54.3172,302.1809,260.4330,99.5328,0,U,43108,999,5742,0,-.93E-6,0
BEIDOU-3 M4 (C22),2018-018A,2026-06-20T23:02:26.287008,1.86230959,.0007674,56.6545,63.0234,20.2662,339.8025,0,U,43207,999,5681,0,-.78E-6,0
BEIDOU-3 M3 (C21),2018-018B,2026-06-21T00:38:10.476960,1.86231037,.0008507,56.6539,63.0252,342.4990,17.5099,0,U,43208,999,5681,0,-.78E-6,0
BEIDOU-3 M9 (C29),2018-029A,2026-06-20T04:05:25.782720,1.86227999,.00009987,54.1908,299.8436,153.7677,206.2347,0,U,43245,999,5595,0,-.89E-6,0
BEIDOU-3 M10 (C30),2018-029B,2026-06-19T00:44:26.693664,1.86229038,.00037818,54.1899,299.9108,40.0504,319.9737,0,U,43246,999,5591,0,-.8E-6,0
IRNSS-1I,2018-035A,2026-06-15T20:09:20.172384,1.00272046,.00178117,28.7520,74.2167,181.5598,5.5147,0,U,43286,999,3006,0,.62E-6,0
COSMOS 2527 (756),2018-053A,2026-06-19T21:36:22.597920,2.13102048,.00069063,65.5791,73.8170,238.7549,121.2143,0,U,43508,999,6233,0,-.34E-6,0
BEIDOU-2 IGSO-7 (C16),2018-057A,2026-06-20T22:01:56.983296,1.00249965,.0104976,55.1960,163.0240,238.0113,308.2121,0,U,43539,999,2916,0,-.23E-6,0
GSAT0221 (GALILEO 25),2018-060A,2026-06-17T15:38:14.173152,1.70475954,.00025957,57.1692,341.7677,303.5364,56.4325,0,U,43564,999,4917,0,-.9E-6,0
GSAT0222 (GALILEO 26),2018-060B,2026-06-19T01:03:54.477792,1.70475706,.00019994,57.1718,341.7337,248.0862,111.8861,0,U,43565,999,4924,0,-.93E-6,0
GSAT0219 (GALILEO 23),2018-060C,2026-06-20T10:31:21.178848,1.70475997,.0001949,57.1711,341.6976,321.5861,38.3948,0,U,43566,999,4924,0,-.95E-6,0
GSAT0220 (GALILEO 24),2018-060D,2026-06-19T11:40:13.372032,1.70475760,.00021117,57.1712,341.7225,313.2574,46.7188,0,U,43567,999,4921,0,-.94E-6,0
BEIDOU-3 M5 (C23),2018-062A,2026-06-20T07:53:29.317920,1.86228559,.0005659,54.0851,182.1963,290.1184,69.8429,0,U,43581,999,5369,0,.68E-6,0
BEIDOU-3 M6 (C24),2018-062B,2026-06-20T04:36:54.550656,1.86227785,.0005006,54.0852,182.1905,8.6086,351.4220,0,U,43582,999,5369,0,.66E-6,0
BEIDOU-3 M12 (C26),2018-067A,2026-06-21T04:54:39.987072,1.86227642,.0007825,54.1808,180.9038,29.8811,330.1852,0,U,43602,999,5319,0,.79E-6,0
BEIDOU-3 M11 (C25),2018-067B,2026-06-20T06:22:43.415328,1.86227129,.0004517,54.1780,180.8993,12.7566,347.2746,0,U,43603,999,5320,0,.68E-6,0
BEIDOU-3 M13 (C32),2018-072A,2026-06-21T07:04:08.624928,1.86231065,.0007137,56.6282,62.5240,330.1286,29.8688,0,U,43622,999,5273,0,-.81E-6,0
BEIDOU-3 M14 (C33),2018-072B,2026-06-21T03:50:21.997248,1.86231110,.000612,56.6300,62.5228,1.7619,358.2786,0,U,43623,999,5272,0,-.8E-6,0
BEIDOU-3 M16 (C35),2018-078A,2026-06-20T05:47:32.108640,1.86232267,.0007135,54.0868,299.8789,41.0909,318.9600,0,U,43647,999,5221,0,-.9E-6,0
BEIDOU-3 M15 (C34),2018-078B,2026-06-20T08:53:42.177120,1.86232388,.0004076,54.0825,299.8748,58.0000,302.0369,0,U,43648,999,5223,0,-.91E-6,0
BEIDOU-3 G1 (C59),2018-085A,2026-06-21T12:07:38.862624,1.00270433,.0008152,2.8805,97.2530,350.3805,163.9159,0,U,43683,999,2810,0,-.111E-5,0
COSMOS 2529 (757),2018-086A,2026-06-18T02:52:19.877664,2.13101950,.00120661,64.2948,192.5630,256.5324,103.3830,0,U,43687,999,5930,0,.57E-6,0
BEIDOU-3 M17 (C36),2018-093A,2026-06-21T04:32:02.130720,1.86228431,.0010176,54.1692,182.1601,292.3320,147.9319,0,U,43706,999,5161,0,.78E-6,0
BEIDOU-3 M18 (C37),2018-093B,2026-06-19T07:43:10.215264,1.86226376,.00080161,54.1697,182.2155,320.7909,39.1732,0,U,43707,999,5157,0,.59E-6,0
GPS BIII-1  (PRN 04),2018-109A,2026-06-20T05:05:04.461216,2.00561777,.0038226,55.6840,92.0670,197.8624,309.8411,0,U,43873,999,5513,0,-.19E-6,0
BEIDOU-3 IGSO-1 (C38),2019-023A,2026-06-20T13:09:30.279168,1.00290704,.0025616,58.6998,37.6136,225.5297,321.1703,0,U,44204,999,724,0,-.229E-5,0
